H1 CPF 01  gfz 2021 12 09 13  8432 terrasarx 
H2 0702601  6201 31698    2021 12 09 12 59 42 2021 12 14 00 00 42   120 1 1  0 0 0
H9
10 0 59558  76302.000000  0   -4645156.078   5087684.357    -37105.530
10 0 59558  76422.000000  0   -4469838.579   5159084.310   -939438.100
10 0 59558  76542.000000  0   -4216023.550   5136619.496  -1825245.608
10 0 59558  76662.000000  0   -3889852.125   5019432.260  -2678970.585
10 0 59558  76782.000000  0   -3498730.031   4808448.482  -3485651.024
10 0 59558  76902.000000  0   -3051157.887   4506371.916  -4231185.575
10 0 59558  77022.000000  0   -2556543.943   4117643.777  -4902577.794
10 0 59558  77142.000000  0   -2025004.318   3648370.278  -5488156.143
10 0 59558  77262.000000  0   -1467155.444   3106220.090  -5977769.149
10 0 59558  77382.000000  0    -893901.706   2500291.880  -6362951.994
10 0 59558  77502.000000  0    -316223.534   1840956.425  -6637061.088
10 0 59558  77622.000000  0     255029.333   1139677.741  -6795377.355
10 0 59558  77742.000000  0     809336.368    408815.403  -6835179.252
10 0 59558  77862.000000  0    1336696.103   -338589.357  -6755785.239
10 0 59558  77982.000000  0    1827802.257  -1089041.805  -6558562.662
10 0 59558  78102.000000  0    2274203.746  -1828830.797  -6246906.337
10 0 59558  78222.000000  0    2668448.311  -2544272.944  -5826186.598
10 0 59558  78342.000000  0    3004207.108  -3221961.617  -5303668.018
10 0 59558  78462.000000  0    3276379.429  -3849019.085  -4688394.800
10 0 59558  78582.000000  0    3481172.285  -4413342.230  -3991043.002
10 0 59558  78702.000000  0    3616155.252  -4903838.805  -3223746.000
10 0 59558  78822.000000  0    3680290.928  -5310652.281  -2399892.245
10 0 59558  78942.000000  0    3673937.007  -5625368.537  -1533894.901
10 0 59558  79062.000000  0    3598820.189  -5841196.659   -640939.524
10 0 59558  79182.000000  0    3457981.946  -5953121.242    263286.572
10 0 59558  79302.000000  0    3255695.973  -5958019.855   1162876.495
10 0 59558  79422.000000  0    2997361.570  -5854744.221   2041992.144
10 0 59558  79542.000000  0    2689373.035  -5644159.607   2885153.231
10 0 59558  79662.000000  0    2338969.085  -5329143.448   3677516.906
10 0 59558  79782.000000  0    1954067.729  -4914544.609   4405143.946
10 0 59558  79902.000000  0    1543090.037  -4407103.294   5055247.279
10 0 59558  80022.000000  0    1114777.975  -3815334.007   5616417.034
10 0 59558  80142.000000  0     678008.505  -3149373.723   6078819.374
10 0 59558  80262.000000  0     241609.645  -2420799.798   6434362.466
10 0 59558  80382.000000  0    -185816.700  -1642423.451   6676830.947
10 0 59558  80502.000000  0    -596062.561   -828062.244   6801988.728
10 0 59558  80622.000000  0    -981470.245      7706.704   6807649.625
10 0 59558  80742.000000  0   -1335074.451    849808.068   6693713.071
10 0 59558  80862.000000  0   -1650727.688   1682939.597   6462165.451
10 0 59558  80982.000000  0   -1923207.348   2491849.217   6117047.840
10 0 59558  81102.000000  0   -2148302.861   3261614.436   5664389.809
10 0 59558  81222.000000  0   -2322881.174   3977919.161   5112109.984
10 0 59558  81342.000000  0   -2444930.640   4627324.370   4469884.724
10 0 59558  81462.000000  0   -2513581.475   5197527.204   3748983.773
10 0 59558  81582.000000  0   -2529102.231   5677602.476   2962075.248
10 0 59558  81702.000000  0   -2492871.796   6058220.167   2123002.804
10 0 59558  81822.000000  0   -2407328.022   6331834.698   1246539.750
10 0 59558  81942.000000  0   -2275893.386   6492840.998    348123.742
10 0 59558  82062.000000  0   -2102879.804   6537693.130   -556422.413
10 0 59558  82182.000000  0   -1893375.284   6464982.760  -1451178.631
10 0 59558  82302.000000  0   -1653113.925   6275472.948  -2320419.791
10 0 59558  82422.000000  0   -1388332.838   5972083.739  -3148899.478
10 0 59558  82542.000000  0   -1105621.962   5559837.745  -3922119.251
10 0 59558  82662.000000  0    -811770.234   5045766.083  -4626582.675
10 0 59558  82782.000000  0    -513611.267   4438776.225  -5250026.944
10 0 59558  82902.000000  0    -217871.923   3749487.471  -5781629.825
10 0 59558  83022.000000  0      68973.092   2990035.711  -6212189.140
10 0 59558  83142.000000  0     340836.824   2173852.421  -6534270.690
10 0 59558  83262.000000  0     592143.219   1315425.121  -6742324.807
10 0 59558  83382.000000  0     817936.793    430041.590  -6832772.998
10 0 59558  83502.000000  0    1013976.580   -466478.438  -6804062.595
10 0 59558  83622.000000  0    1176813.002  -1358060.500  -6656689.546
10 0 59558  83742.000000  0    1303846.816  -2228655.665  -6393189.303
10 0 59558  83862.000000  0    1393370.275  -3062521.598  -6018098.973
10 0 59558  83982.000000  0    1444589.497  -3844503.703  -5537889.285
10 0 59558  84102.000000  0    1457626.529  -4560311.122  -4960862.736
10 0 59558  84222.000000  0    1433502.871  -5196779.378  -4297020.393
10 0 59558  84342.000000  0    1374103.289  -5742118.932  -3557900.177
10 0 59558  84462.000000  0    1282119.725  -6186143.374  -2756384.478
10 0 59558  84582.000000  0    1160977.794  -6520470.893  -1906481.018
10 0 59558  84702.000000  0    1014746.754  -6738694.878  -1023079.617
10 0 59558  84822.000000  0     848033.730  -6836517.879   -121688.779
10 0 59558  84942.000000  0     665865.745  -6811844.487    781842.001
10 0 59558  85062.000000  0     473562.449  -6664831.456   1671608.225
10 0 59558  85182.000000  0     276602.532  -6397892.929   2531939.808
10 0 59558  85302.000000  0      80487.289  -6015658.597   3347687.179
10 0 59558  85422.000000  0    -109395.726  -5524885.617   4104494.760
10 0 59558  85542.000000  0    -287904.849  -4934330.857   4789056.532
10 0 59558  85662.000000  0    -450268.735  -4254584.934   5389351.490
10 0 59558  85782.000000  0    -592200.007  -3497872.628   5894853.322
10 0 59558  85902.000000  0    -709996.222  -2677822.903   6296711.715
10 0 59558  86022.000000  0    -800625.759  -1809215.808   6587899.599
10 0 59558  86142.000000  0    -861797.231   -907713.476   6763329.199
10 0 59558  86262.000000  0    -892011.739     10423.758   6819936.947
10 0 59558  86382.000000  0    -890596.787    928631.208   6756733.912
10 0 59559    102.000000  0    -857720.132   1830338.263   6574821.988
10 0 59559    222.000000  0    -794384.123   2699266.784   6277375.792
10 0 59559    342.000000  0    -702401.118   3519725.002   5869590.980
10 0 59559    462.000000  0    -584350.296   4276893.185   5358598.647
10 0 59559    582.000000  0    -443516.081   4957095.077   4753346.652
10 0 59559    702.000000  0    -283809.772   5548052.986   4064449.179
10 0 59559    822.000000  0    -109674.829   6039116.817   3304003.115
10 0 59559    942.000000  0      74020.014   6421466.091   2485381.262
10 0 59559   1062.000000  0     262099.872   6688282.971   1622993.633
10 0 59559   1182.000000  0     449212.576   6834880.033    732027.527
10 0 59559   1302.000000  0     629962.497   6858787.978   -171826.312
10 0 59559   1422.000000  0     799046.618   6759799.100  -1072658.818
10 0 59559   1542.000000  0     951387.868   6539964.161  -1954631.465
10 0 59559   1662.000000  0    1082262.858   6203544.901  -2802261.918
10 0 59559   1782.000000  0    1187421.764   5756923.052  -3600701.164
10 0 59559   1902.000000  0    1263197.424   5208468.349  -4335996.157
10 0 59559   2022.000000  0    1306600.788   4568369.256  -4995332.548
10 0 59559   2142.000000  0    1315400.562   3848431.539  -5567252.332
10 0 59559   2262.000000  0    1288185.214   3061851.376  -6041844.565
10 0 59559   2382.000000  0    1224406.597   2222966.125  -6410906.957
10 0 59559   2502.000000  0    1124404.348   1346990.038  -6668075.120
10 0 59559   2622.000000  0     989411.414    449740.109  -6808922.436
10 0 59559   2742.000000  0     821540.355   -452645.950  -6831028.333
10 0 59559   2862.000000  0     623750.494  -1343994.427  -6734014.339
10 0 59559   2982.000000  0     399796.779  -2208377.539  -6519548.264
10 0 59559   3102.000000  0     154161.450  -3030389.976  -6191320.004
10 0 59559   3222.000000  0    -108032.313  -3795420.416  -5754986.210
10 0 59559   3342.000000  0    -381121.839  -4489909.806  -5218081.496
10 0 59559   3462.000000  0    -659020.482  -5101593.883  -4589900.002
10 0 59559   3582.000000  0    -935346.295  -5619726.340  -3881345.819
10 0 59559   3702.000000  0   -1203561.033  -6035277.227  -3104753.053
10 0 59559   3822.000000  0   -1457116.372  -6341101.640  -2273678.022
10 0 59559   3942.000000  0   -1689604.548  -6532075.451  -1402666.308
10 0 59559   4062.000000  0   -1894909.444  -6605193.368   -506997.140
10 0 59559   4182.000000  0   -2067354.403  -6559625.426    397589.332
10 0 59559   4302.000000  0   -2201843.290  -6396729.852   1295175.836
10 0 59559   4422.000000  0   -2293990.749  -6120021.732   2169956.819
10 0 59559   4542.000000  0   -2340238.023  -5735097.861   3006525.979
10 0 59559   4662.000000  0   -2337950.923  -5249519.526   3790155.457
10 0 59559   4782.000000  0   -2285497.799  -4672657.070   4507060.232
10 0 59559   4902.000000  0   -2182306.186  -4015501.248   5144642.824
10 0 59559   5022.000000  0   -2028897.283  -3290445.180   5691715.193
10 0 59559   5142.000000  0   -1826896.127  -2511041.249   6138691.828
10 0 59559   5262.000000  0   -1579017.726  -1691741.867   6477751.872
10 0 59559   5382.000000  0   -1289030.813   -847627.789   6702970.547
10 0 59559   5502.000000  0    -961700.330      5872.684   6810416.146
10 0 59559   5622.000000  0    -602709.490    853265.038   6798213.497
10 0 59559   5742.000000  0    -218561.104   1679269.106   6666575.571
10 0 59559   5862.000000  0     183540.177   2469094.343   6417800.080
10 0 59559   5982.000000  0     595822.427   3208704.466   6056231.496
10 0 59559   6102.000000  0    1010095.093   3885068.078   5588190.204
10 0 59559   6222.000000  0    1417910.001   4486392.029   5021867.828
10 0 59559   6342.000000  0    1810732.130   5002333.128   4367189.959
99
